NORAD_CAT_ID,OBJECT_NAME,OBJECT_TYPE,EPOCH,MEAN_MOTION,ECCENTRICITY,INCLINATION,RA_OF_ASC_NODE,ARG_OF_PERICENTER,MEAN_ANOMALY,BSTAR,MEAN_MOTION_DOT,MEAN_MOTION_DDOT,TLE_LINE0,TLE_LINE1,TLE_LINE2,SEMIMAJOR_AXIS,PERIOD,APOGEE,PERIGEE,DECAYED
52699.0,STARLINK-3987,PAYLOAD,2023-10-31 13:52:33,15.08839391,0.0001542,53.2189,40.3386,79.3611,280.7554,0.0007647,0.00011903,0.0,0 STARLINK-3987,1 52699U 22053AV  23304.57816431  .00011903  00000-0  76470-3 0  9991,2 52699  53.2189  40.3386 0001542  79.3611 280.7554 15.08839391 81393,6917.882,95.438,540.814,538.681,0.0
52699.0,STARLINK-3987,PAYLOAD,2023-11-01 12:07:57,15.08848235,0.0001355,53.2174,36.1748,76.2509,283.8634,0.00048632,7.462e-05,0.0,0 STARLINK-3987,1 52699U 22053AV  23305.50552200  .00007462  00000-0  48632-3 0  9990,2 52699  53.2174  36.1748 0001355  76.2509 283.8634 15.08848235 81105,6917.855,95.437,540.658,538.783,0.0
52699.0,STARLINK-3987,PAYLOAD,2023-11-01 13:43:20,15.08854589,0.0001444,53.2179,35.8763,73.7581,286.357,0.00061346,9.493e-05,0.0,0 STARLINK-3987,1 52699U 22053AV  23305.57176035  .00009493  00000-0  61346-3 0  9998,2 52699  53.2179  35.8763 0001444  73.7581 286.3570 15.08854589 81548,6917.836,95.437,540.7,538.702,0.0
52699.0,STARLINK-3987,PAYLOAD,2023-11-01 15:18:43,15.08860617,0.0001453,53.2173,35.5804,80.3106,279.8051,0.00076281,0.0001188,0.0,0 STARLINK-3987,1 52699U 22053AV  23305.63799843  .00011880  00000-0  76281-3 0  9990,2 52699  53.2173  35.5804 0001453  80.3106 279.8051 15.08860617 81126,6917.817,95.436,540.688,538.677,0.0
52699.0,STARLINK-3987,PAYLOAD,2023-11-02 11:58:43,15.08856687,0.0001384,53.2168,31.714,90.0464,270.0687,0.00065046,0.00010084,0.0,0 STARLINK-3987,1 52699U 22053AV  23306.49911723  .00010084  00000-0  65046-3 0  9990,2 52699  53.2168  31.7140 0001384  90.0464 270.0687 15.08856687 81253,6917.829,95.436,540.652,538.737,0.0
52699.0,STARLINK-3987,PAYLOAD,2023-11-02 13:34:06,15.08855227,0.0001409,53.2169,31.417,85.9346,274.1807,0.0015547,0.00024552,0.0,0 STARLINK-3987,1 52699U 22053AV  23306.56535822  .00024552  00000-0  15547-2 0  9995,2 52699  53.2169  31.4170 0001409  85.9346 274.1807 15.08855227 81690,6917.834,95.437,540.674,538.724,0.0
52699.0,STARLINK-3987,PAYLOAD,2023-11-03 05:27:58,15.08840454,0.0001622,53.2173,28.4446,91.0581,269.0597,0.00023252,3.415e-05,0.0,0 STARLINK-3987,1 52699U 22053AV  23307.22776132  .00003415  00000-0  23252-3 0  9998,2 52699  53.2173  28.4446 0001622  91.0581 269.0597 15.08840454 81362,6917.879,95.438,540.866,538.622,0.0
52699.0,STARLINK-3987,PAYLOAD,2023-11-03 11:49:31,15.0884161,0.0001475,53.2181,27.2544,94.6784,265.4376,0.00010572,1.395e-05,0.0,0 STARLINK-3987,1 52699U 22053AV  23307.49272106  .00001395  00000-0  10572-3 0  9995,2 52699  53.2181  27.2544 0001475  94.6784 265.4376 15.08841610 81839,6917.875,95.437,540.761,538.72,0.0
52699.0,STARLINK-3987,PAYLOAD,2023-11-03 22:57:13,15.08837667,0.000153,53.2187,25.1712,91.3769,268.7398,0.00012543,1.709e-05,0.0,0 STARLINK-3987,1 52699U 22053AV  23307.95640430  .00001709  00000-0  12543-3 0  9994,2 52699  53.2187  25.1712 0001530  91.3769 268.7398 15.08837667 81475,6917.888,95.438,540.811,538.694,0.0
52699.0,STARLINK-3987,PAYLOAD,2023-11-04 11:40:18,15.08840932,0.0001517,53.2176,22.7928,90.7174,269.3992,0.00019662,2.843e-05,0.0,0 STARLINK-3987,1 52699U 22053AV  23308.48632546  .00002843  00000-0  19662-3 0  9991,2 52699  53.2176  22.7928 0001517  90.7174 269.3992 15.08840932 81985,6917.878,95.437,540.792,538.693,0.0
52699.0,STARLINK-3987,PAYLOAD,2023-11-05 11:31:04,15.08864068,0.0001493,53.2191,18.3319,89.6203,270.496,0.00067136,0.0001042,0.0,0 STARLINK-3987,1 52699U 22053AV  23309.47991784  .00010420  00000-0  67136-3 0  9992,2 52699  53.2191  18.3319 0001493  89.6203 270.4960 15.08864068 81704,6917.807,95.436,540.705,538.639,0.0
52699.0,STARLINK-3987,PAYLOAD,2023-11-06 11:21:52,15.08798151,0.0001472,53.2194,13.8711,101.3784,258.7373,-0.0013912,-0.00022335,0.0,0 STARLINK-3987,1 52699U 22053AV  23310.47352177 -.00022335  00000-0 -13912-2 0  9993,2 52699  53.2194  13.8711 0001472 101.3784 258.7373 15.08798151 81858,6918.008,95.44,540.892,538.855,0.0
52699.0,STARLINK-3987,PAYLOAD,2023-11-06 20:54:12,15.08789052,0.0001409,53.2192,12.0888,98.1288,261.9864,0.00015097,2.112e-05,0.0,0 STARLINK-3987,1 52699U 22053AV  23310.87098012  .00002112  00000-0  15097-3 0  9998,2 52699  53.2192  12.0888 0001409  98.1288 261.9864 15.08789052 82340,6918.036,95.441,540.876,538.926,0.0
52699.0,STARLINK-3987,PAYLOAD,2023-11-07 11:12:42,15.08827574,0.0001412,53.2187,9.4135,90.9773,269.1381,0.0018577,0.00029391,0.0,0 STARLINK-3987,1 52699U 22053AV  23311.46715468  .00029391  00000-0  18577-2 0  9998,2 52699  53.2187   9.4135 0001412  90.9773 269.1381 15.08827574 82001,6917.918,95.438,540.76,538.807,0.0
52699.0,STARLINK-3987,PAYLOAD,2023-11-07 12:48:05,15.08827728,0.0001445,53.2188,9.1161,91.6225,268.4932,0.0015172,0.00023933,0.0,0 STARLINK-3987,1 52699U 22053AV  23311.53339510  .00023933  00000-0  15172-2 0  9990,2 52699  53.2188   9.1161 0001445  91.6225 268.4932 15.08827728 82447,6917.918,95.438,540.783,538.783,0.0
52699.0,STARLINK-3987,PAYLOAD,2023-11-08 11:03:27,15.08905963,0.0001299,53.218,4.9522,80.6023,279.5116,0.0021995,0.00034954,0.0,0 STARLINK-3987,1 52699U 22053AV  23312.46073709  .00034954  00000-0  21995-2 0  9993,2 52699  53.2180   4.9522 0001299  80.6023 279.5116 15.08905963 82157,6917.679,95.433,540.442,538.645,0.0
52699.0,STARLINK-3987,PAYLOAD,2023-11-09 10:54:13,15.08859433,0.0001351,53.2171,0.4979,134.2742,225.8361,0.00069209,0.0001075,0.0,0 STARLINK-3987,1 52699U 22053AV  23313.45432723  .00010750  00000-0  69209-3 0  9997,2 52699  53.2171   0.4979 0001351 134.2742 225.8361 15.08859433 82300,6917.821,95.436,540.621,538.751,0.0
52699.0,STARLINK-3987,PAYLOAD,2023-11-09 23:37:19,15.08845012,0.0001474,53.2175,358.1136,118.3411,241.773,0.00041858,6.381e-05,0.0,0 STARLINK-3987,1 52699U 22053AV  23313.98424944  .00006381  00000-0  41858-3 0  9996,2 52699  53.2175 358.1136 0001474 118.3411 241.7730 15.08845012 82387,6917.865,95.437,540.75,538.71,0.0
52699.0,STARLINK-3987,PAYLOAD,2023-11-10 10:45:01,15.08842251,0.000136,53.2173,356.0317,96.0042,264.1105,0.00043636,6.664e-05,0.0,0 STARLINK-3987,1 52699U 22053AV  23314.44793060  .00006664  00000-0  43636-3 0  9996,2 52699  53.2173 356.0317 0001360  96.0042 264.1105 15.08842251 82881,6917.874,95.437,540.679,538.798,0.0
52699.0,STARLINK-3987,PAYLOAD,2023-11-11 02:38:52,15.08837147,0.0001532,53.2182,353.0578,90.4842,269.6325,8.5626e-05,1.075e-05,0.0,0 STARLINK-3987,1 52699U 22053AV  23315.11033523  .00001075  00000-0  85626-4 0  9999,2 52699  53.2182 353.0578 0001532  90.4842 269.6325 15.08837147 82550,6917.889,95.438,540.814,538.694,0.0
52699.0,STARLINK-3987,PAYLOAD,2023-11-11 09:00:25,15.08841077,0.0001503,53.2182,351.8684,90.5842,269.5322,0.00015776,2.224e-05,0.0,0 STARLINK-3987,1 52699U 22053AV  23315.37529566  .00002224  00000-0  15776-3 0  9999,2 52699  53.2182 351.8684 0001503  90.5842 269.5322 15.08841077 83029,6917.877,95.437,540.782,538.702,0.0
52699.0,STARLINK-3987,PAYLOAD,2023-11-11 20:08:07,15.08842701,0.0001575,53.2182,349.7871,87.7547,272.3626,0.00022191,3.246e-05,0.0,0 STARLINK-3987,1 52699U 22053AV  23315.83897666  .00003246  00000-0  22191-3 0  9993,2 52699  53.2182 349.7871 0001575  87.7547 272.3626 15.08842701 83093,6917.872,95.437,540.827,538.648,0.0
52699.0,STARLINK-3987,PAYLOAD,2023-11-12 08:51:12,15.08845662,0.0001587,53.2183,347.4078,95.1639,264.9535,0.00029355,4.388e-05,0.0,0 STARLINK-3987,1 52699U 22053AV  23316.36889598  .00004388  00000-0  29355-3 0  9994,2 52699  53.2183 347.4078 0001587  95.1639 264.9535 15.08845662 82742,6917.863,95.437,540.826,538.63,0.0
52699.0,STARLINK-3987,PAYLOAD,2023-11-12 12:01:59,15.08843756,0.0001761,53.2183,346.8128,92.0349,268.0845,0.00067939,0.00010542,0.0,0 STARLINK-3987,1 52699U 22053AV  23316.50137902  .00010542  00000-0  67939-3 0  9994,2 52699  53.2183 346.8128 0001761  92.0349 268.0845 15.08843756 83190,6917.869,95.437,540.952,538.516,0.0
52699.0,STARLINK-3987,PAYLOAD,2023-11-13 02:20:27,15.08842788,0.000169,53.2176,344.1346,92.0741,268.0445,0.00014355,1.997e-05,0.0,0 STARLINK-3987,1 52699U 22053AV  23317.09753598  .00001997  00000-0  14355-3 0  9992,2 52699  53.2176 344.1346 0001690  92.0741 268.0445 15.08842788 82854,6917.872,95.437,540.906,538.568,0.0
52699.0,STARLINK-3987,PAYLOAD,2023-11-13 08:41:59,15.08853569,0.0001472,53.2178,342.9434,94.8309,265.2851,0.00025315,3.745e-05,0.0,0 STARLINK-3987,1 52699U 22053AV  23317.36248987  .00003745  00000-0  25315-3 0  9994,2 52699  53.2178 342.9434 0001472  94.8309 265.2851 15.08853569 82891,6917.839,95.437,540.722,538.686,0.0
52699.0,STARLINK-3987,PAYLOAD,2023-11-14 02:11:13,15.08842642,0.000151,53.2174,339.6764,85.4279,274.6886,6.4902e-05,7.45e-06,0.0,0 STARLINK-3987,1 52699U 22053AV  23318.09113417  .00000745  00000-0  64902-4 0  9997,2 52699  53.2174 339.6764 0001510  85.4279 274.6886 15.08842642 83007,6917.872,95.437,540.782,538.693,0.0
52699.0,STARLINK-3987,PAYLOAD,2023-11-14 08:32:46,15.08846051,0.0001466,53.2179,338.487,92.3299,267.7861,0.00011648,1.567e-05,0.0,0 STARLINK-3987,1 52699U 22053AV  23318.35609172  .00001567  00000-0  11648-3 0  9995,2 52699  53.2179 338.4870 0001466  92.3299 267.7861 15.08846051 83471,6917.862,95.437,540.741,538.713,0.0
52699.0,STARLINK-3987,PAYLOAD,2023-11-14 18:05:05,15.08842821,0.0001438,53.2173,336.7036,92.1401,267.9756,4.694e-05,4.59e-06,0.0,0 STARLINK-3987,1 52699U 22053AV  23318.75353176  .00000459  00000-0  46940-4 0  9992,2 52699  53.2173 336.7036 0001438  92.1401 267.9756 15.08842821 83535,6917.872,95.437,540.732,538.742,0.0
52699.0,STARLINK-3987,PAYLOAD,2023-11-15 08:23:33,15.08836086,0.0001701,53.2178,334.0288,99.1341,260.9844,-0.00014776,-2.639e-05,0.0,0 STARLINK-3987,1 52699U 22053AV  23319.34969722 -.00002639  00000-0 -14776-3 0  9993,2 52699  53.2178 334.0288 0001701  99.1341 260.9844 15.08836086 83192,6917.892,95.438,540.934,538.581,0.0
